{"type":"FeatureCollection","features":[{"type":"Feature","properties":{"name":"Ghana","level":"ADM0"},"geometry":{"type":"Polygon","coordinates":[[[-0.22589,11.16333],[-0.21869,11.15973],[-0.19781,11.15668],[-0.13611,11.1391],[-0.13422,11.13049],[-0.14349,11.1189],[-0.14252,11.10632],[-0.12482,11.10492],[-0.11969,11.1001],[-0.10559,11.09509],[-0.0946,11.08612],[-0.08801,11.08691],[-0.08008,11.08447],[-0.0545,11.08691],[-0.03961,11.10492],[-0.03198,11.1095],[-0.01691,11.11371],[-0.00513,11.10748],[-0.00488,11.10089],[0.00171,11.09528],[0.0047,11.08252],[0.02429,11.06232],[0.02869,11.00348],[0.03387,10.99268],[0.03247,10.98633],[0.0249,10.97247],[-0.00409,10.96472],[-0.0058,10.96112],[-0.0072,10.94873],[-0.01141,10.94373],[-0.01221,10.9375],[-0.008,10.91669],[-0.01752,10.89191],[-0.02509,10.88092],[-0.02533,10.8667],[-0.02991,10.85449],[-0.0285,10.84308],[-0.02368,10.83429],[-0.02252,10.81952],[-0.02869,10.81531],[-0.0321,10.80713],[-0.0387,10.80469],[-0.04419,10.79828],[-0.04492,10.79388],[-0.05579,10.78711],[-0.06451,10.77332],[-0.07208,10.77032],[-0.07111,10.76312],[-0.0741,10.7533],[-0.07172,10.74109],[-0.07483,10.72949],[-0.07312,10.7207],[-0.086,10.71649],[-0.09088,10.71033],[-0.07831,10.69067],[-0.05981,10.6333],[-0.02191,10.62469],[-0.01538,10.62207],[-0.01038,10.61627],[0.0415,10.60107],[0.04291,10.59509],[0.0553,10.58429],[0.05988,10.57147],[0.06049,10.56207],[0.11768,10.54132],[0.12793,10.53009],[0.14313,10.52588],[0.15112,10.48871],[0.15887,10.47449],[0.15649,10.46307],[0.1615,10.46008],[0.16449,10.45428],[0.17108,10.45172],[0.17188,10.44788],[0.1673,10.44153],[0.16992,10.42987],[0.18927,10.41687],[0.19092,10.40692],[0.19391,10.40308],[0.2027,10.40692],[0.2077,10.40631],[0.20569,10.41748],[0.2099,10.41791],[0.21692,10.4259],[0.22632,10.42151],[0.23572,10.41309],[0.23749,10.41553],[0.24408,10.41528],[0.24951,10.41272],[0.25092,10.40948],[0.26331,10.40973],[0.26788,10.4115],[0.26788,10.41571],[0.27087,10.41632],[0.27252,10.4201],[0.2851,10.42133],[0.29028,10.40948],[0.29828,10.40887],[0.29968,10.40009],[0.30011,10.39392],[0.29291,10.3833],[0.29108,10.3761],[0.30267,10.37012],[0.3067,10.37109],[0.31232,10.3645],[0.3161,10.34912],[0.31567,10.33832],[0.31873,10.3349],[0.32233,10.33508],[0.32709,10.3399],[0.33368,10.33569],[0.33649,10.32892],[0.33691,10.32471],[0.3233,10.31927],[0.32251,10.3147],[0.31708,10.31073],[0.32507,10.30713],[0.3327,10.31128],[0.34772,10.30792],[0.35431,10.31329],[0.36713,10.31091],[0.38788,10.31592],[0.3963,10.31348],[0.39771,10.30951],[0.39752,10.30573],[0.39471,10.30353],[0.38812,10.30371],[0.37927,10.29431],[0.37689,10.28772],[0.36969,10.28473],[0.38129,10.27533],[0.37311,10.26709],[0.36493,10.26532],[0.36169,10.26031],[0.36072,10.22052],[0.35553,10.21448],[0.35571,10.20251],[0.35107,10.1911],[0.35309,10.18091],[0.35071,10.16711],[0.3623,10.1449],[0.36292,10.13812],[0.35309,10.11328],[0.35229,10.10107],[0.35553,10.09192],[0.36212,10.08649],[0.39447,10.08087],[0.41589,10.06171],[0.4173,10.05768],[0.41272,10.04291],[0.41388,10.0329],[0.41107,10.02271],[0.40253,10.02051],[0.39172,10.02667],[0.37451,10.02771],[0.36432,10.0343],[0.36072,10.03052],[0.36389,10.01251],[0.35712,9.99652],[0.3595,9.98608],[0.3689,9.96552],[0.38611,9.9483],[0.38629,9.93927],[0.35992,9.92969],[0.35468,9.92047],[0.3515,9.9043],[0.3515,9.88312],[0.35809,9.84851],[0.34888,9.82568],[0.34027,9.81671],[0.34027,9.80731],[0.33313,9.79968],[0.33087,9.79309],[0.33533,9.78113],[0.33472,9.77728],[0.32611,9.77448],[0.3299,9.75891],[0.3255,9.7417],[0.31952,9.73029],[0.3219,9.72369],[0.33612,9.72192],[0.3429,9.7179],[0.3465,9.71289],[0.35071,9.69513],[0.35193,9.6767],[0.36133,9.67468],[0.36768,9.66467],[0.36627,9.66089],[0.36792,9.65692],[0.37549,9.65228],[0.3783,9.64447],[0.38153,9.64429],[0.37311,9.6073],[0.38232,9.59229],[0.37927,9.58612],[0.36908,9.57788],[0.3559,9.5733],[0.3479,9.5733],[0.33752,9.57892],[0.32709,9.57928],[0.32013,9.57629],[0.2887,9.57672],[0.26489,9.56769],[0.2533,9.57452],[0.2439,9.57629],[0.2403,9.57452],[0.23492,9.54688],[0.23688,9.53473],[0.24292,9.52448],[0.25671,9.51892],[0.28387,9.5249],[0.29053,9.5235],[0.30652,9.51489],[0.30933,9.5119],[0.31049,9.50488],[0.28967,9.4903],[0.27692,9.48853],[0.27008,9.47968],[0.2547,9.47827],[0.23511,9.4881],[0.23053,9.48749],[0.22711,9.4809],[0.22913,9.46332],[0.24249,9.4491],[0.24811,9.43768],[0.25928,9.43347],[0.2605,9.42969],[0.27667,9.42871],[0.29852,9.43671],[0.31189,9.44531],[0.32788,9.4483],[0.33752,9.45288],[0.34668,9.47449],[0.34772,9.47968],[0.34448,9.48712],[0.35931,9.49829],[0.38989,9.49213],[0.40649,9.49432],[0.4165,9.50171],[0.43073,9.4989],[0.44708,9.5011],[0.4577,9.49707],[0.4635,9.49127],[0.4809,9.48633],[0.48969,9.48633],[0.50208,9.47412],[0.50531,9.46613],[0.50348,9.45831],[0.4975,9.45392],[0.49628,9.44952],[0.50067,9.43927],[0.5083,9.43707],[0.52148,9.43848],[0.52533,9.43127],[0.54828,9.42291],[0.5517,9.42371],[0.55511,9.42188],[0.55731,9.41168],[0.5647,9.4071],[0.56311,9.35449],[0.5531,9.34448],[0.55627,9.33392],[0.56311,9.32452],[0.56372,9.31732],[0.55988,9.30573],[0.54053,9.30652],[0.53748,9.30188],[0.54071,9.30133],[0.51593,9.27289],[0.50848,9.25812],[0.50812,9.2547],[0.52051,9.22791],[0.53912,9.2135],[0.52411,9.19513],[0.51208,9.1651],[0.50488,9.1601],[0.50189,9.1543],[0.49371,9.15491],[0.47809,9.1441],[0.4809,9.14093],[0.48529,9.1225],[0.48547,9.10352],[0.48389,9.09991],[0.47968,9.0993],[0.45947,9.07251],[0.46429,9.07208],[0.46271,9.0553],[0.4563,9.05511],[0.45551,9.03571],[0.46307,9.03351],[0.46552,9.02307],[0.47052,9.01727],[0.46991,9.00848],[0.49432,8.95728],[0.50671,8.95007],[0.5141,8.9353],[0.5097,8.91748],[0.51288,8.91193],[0.5141,8.90131],[0.52692,8.87671],[0.52069,8.87231],[0.51929,8.86749],[0.51813,8.8631],[0.52112,8.85632],[0.51868,8.85309],[0.51007,8.85553],[0.50732,8.84833],[0.50348,8.84711],[0.49628,8.83868],[0.50092,8.82971],[0.49768,8.8277],[0.49591,8.82013],[0.50012,8.8147],[0.49109,8.8009],[0.47211,8.79889],[0.46832,8.79291],[0.46472,8.79932],[0.45929,8.80292],[0.45892,8.80988],[0.4469,8.81012],[0.44312,8.80212],[0.43073,8.7973],[0.43127,8.7923],[0.43951,8.79291],[0.44092,8.78888],[0.43872,8.78473],[0.43488,8.7851],[0.4259,8.78027],[0.42151,8.79089],[0.40631,8.7937],[0.3985,8.79053],[0.39288,8.79547],[0.39008,8.79187],[0.38531,8.79132],[0.38232,8.79529],[0.38013,8.7915],[0.38068,8.76929],[0.38971,8.76172],[0.40088,8.75812],[0.39832,8.75452],[0.37567,8.75409],[0.38452,8.74573],[0.38232,8.73969],[0.41669,8.68768],[0.46948,8.60028],[0.47668,8.59528],[0.48352,8.5979],[0.4931,8.59613],[0.50067,8.58148],[0.50171,8.57489],[0.5069,8.57391],[0.51489,8.56549],[0.52393,8.56628],[0.52991,8.5697],[0.53448,8.56689],[0.5343,8.56372],[0.54089,8.55731],[0.55908,8.55011],[0.56451,8.54492],[0.57208,8.52667],[0.58331,8.52869],[0.59131,8.51672],[0.60193,8.51813],[0.61389,8.51251],[0.62488,8.5105],[0.62872,8.5083],[0.62732,8.49988],[0.62988,8.49731],[0.6405,8.4975],[0.64551,8.49329],[0.64709,8.49048],[0.64532,8.47607],[0.65491,8.45691],[0.65527,8.4527],[0.65253,8.45227],[0.65228,8.42151],[0.68549,8.41107],[0.6889,8.40527],[0.69531,8.4035],[0.6933,8.39551],[0.7049,8.39349],[0.69971,8.3891],[0.7085,8.3847],[0.71069,8.37592],[0.71033,8.35248],[0.71692,8.35071],[0.7193,8.34808],[0.7179,8.34473],[0.72729,8.34351],[0.72888,8.34088],[0.72729,8.33789],[0.7309,8.29449],[0.72632,8.2821],[0.68872,8.28192],[0.68292,8.27972],[0.68188,8.2663],[0.67352,8.25909],[0.63892,8.26068],[0.63672,8.25488],[0.63812,8.24628],[0.62512,8.23431],[0.62549,8.22491],[0.61987,8.2207],[0.6189,8.21552],[0.6131,8.21429],[0.61072,8.21631],[0.59027,8.20709],[0.58972,8.19812],[0.59253,8.1925],[0.60327,8.18152],[0.61328,8.18433],[0.61389,8.18011],[0.61328,8.1767],[0.60773,8.17249],[0.61133,8.15411],[0.60687,8.13892],[0.59332,8.1391],[0.59149,8.13629],[0.5943,8.1275],[0.59167,8.11627],[0.59192,8.10327],[0.58569,8.10107],[0.58508,8.09332],[0.59308,8.06171],[0.59747,8.06152],[0.59869,8.05731],[0.59473,8.03888],[0.60052,8.02612],[0.60968,8.0271],[0.61609,8.01727],[0.62012,8.01611],[0.62231,8.01251],[0.62073,8.00787],[0.6131,8.0047],[0.61652,7.98907],[0.61768,7.96588],[0.62329,7.96173],[0.62128,7.93671],[0.62689,7.93109],[0.62628,7.92767],[0.63049,7.9201],[0.62811,7.91791],[0.63171,7.91388],[0.6261,7.90149],[0.62073,7.90088],[0.6239,7.88391],[0.62207,7.87811],[0.62329,7.87152],[0.6275,7.86829],[0.62628,7.85052],[0.62408,7.84229],[0.62091,7.84192],[0.61749,7.8067],[0.62048,7.79889],[0.61768,7.79633],[0.62811,7.79352],[0.63092,7.77069],[0.63049,7.76752],[0.61987,7.76367],[0.61871,7.75769],[0.61151,7.75409],[0.6167,7.74371],[0.62469,7.71149],[0.62909,7.70569],[0.62048,7.70349],[0.61029,7.71033],[0.60291,7.71008],[0.59253,7.7041],[0.58313,7.65588],[0.5863,7.62512],[0.55389,7.60791],[0.54187,7.60687],[0.53052,7.59729],[0.51929,7.5929],[0.52069,7.59027],[0.52789,7.58832],[0.52911,7.58313],[0.5191,7.51312],[0.52368,7.50153],[0.52393,7.4931],[0.52728,7.49127],[0.52667,7.48767],[0.52911,7.48633],[0.52649,7.48352],[0.52808,7.47968],[0.52051,7.46991],[0.5235,7.46368],[0.51947,7.4613],[0.52173,7.45551],[0.52832,7.45813],[0.53229,7.4549],[0.53693,7.42651],[0.55267,7.40631],[0.56348,7.39893],[0.57312,7.39471],[0.59869,7.40033],[0.60211,7.4079],[0.60529,7.40613],[0.61969,7.41333],[0.62531,7.41132],[0.63129,7.40308],[0.64172,7.40131],[0.64471,7.39789],[0.64728,7.38068],[0.64331,7.37512],[0.65887,7.31671],[0.65033,7.29132],[0.64673,7.29089],[0.64313,7.27869],[0.6441,7.25732],[0.6405,7.24908],[0.6391,7.22607],[0.63452,7.22052],[0.63129,7.19647],[0.62488,7.18292],[0.61768,7.18311],[0.61591,7.17712],[0.6181,7.16852],[0.61688,7.16229],[0.61249,7.15729],[0.60748,7.15833],[0.60492,7.1557],[0.60553,7.14209],[0.60388,7.1377],[0.59692,7.13312],[0.59387,7.11792],[0.59308,7.11371],[0.59747,7.1145],[0.60229,7.10913],[0.61151,7.10553],[0.61432,7.0957],[0.61108,7.08411],[0.59747,7.06073],[0.60229,7.03387],[0.60132,7.01892],[0.59473,7.0097],[0.59613,7.00629],[0.59448,7.00311],[0.58612,7.00208],[0.5799,6.99792],[0.57092,6.99969],[0.5495,6.99371],[0.53931,6.98688],[0.53448,6.97772],[0.52252,6.97192],[0.52551,6.9635],[0.52393,6.96112],[0.52612,6.95508],[0.52307,6.94733],[0.52509,6.9411],[0.54791,6.93707],[0.55212,6.93048],[0.55951,6.92853],[0.56592,6.92151],[0.55627,6.88629],[0.53448,6.87653],[0.54291,6.86493],[0.53192,6.85571],[0.53247,6.82813],[0.53888,6.82489],[0.5437,6.82727],[0.5473,6.83411],[0.56531,6.82391],[0.56952,6.81049],[0.57953,6.80652],[0.57611,6.7995],[0.56891,6.80109],[0.56708,6.78833],[0.56769,6.78387],[0.57648,6.77429],[0.5733,6.77429],[0.5799,6.76331],[0.60132,6.75592],[0.60913,6.74847],[0.61871,6.75391],[0.62451,6.74829],[0.63312,6.74829],[0.64948,6.73828],[0.64429,6.72272],[0.64471,6.71808],[0.64893,6.71252],[0.6441,6.69287],[0.64587,6.68512],[0.64368,6.68292],[0.6441,6.66809],[0.63568,6.64093],[0.63849,6.63849],[0.6377,6.63013],[0.64349,6.6311],[0.6521,6.61853],[0.65228,6.61469],[0.65948,6.60748],[0.66748,6.60651],[0.67291,6.61371],[0.6889,6.60052],[0.69171,6.59167],[0.69788,6.5885],[0.71173,6.58508],[0.72369,6.5899],[0.74249,6.58911],[0.74872,6.57312],[0.7489,6.56311],[0.71912,6.53491],[0.71753,6.52753],[0.72168,6.50208],[0.7323,6.48492],[0.74652,6.48389],[0.74487,6.4585],[0.7489,6.44708],[0.7821,6.43451],[0.78748,6.41351],[0.82611,6.40411],[0.8399,6.39648],[0.87451,6.36688],[0.88733,6.34912],[0.89227,6.3363],[1.00409,6.3349],[1.00787,6.32251],[1.00531,6.3111],[1.00787,6.29547],[1.01593,6.2865],[1.01929,6.26709],[1.03729,6.23828],[1.05432,6.23328],[1.06512,6.22089],[1.07507,6.19531],[1.07288,6.1933],[1.08032,6.18408],[1.0755,6.17712],[1.07648,6.1731],[1.08447,6.16931],[1.20032,6.16772],[1.19952,6.11267],[1.1261,6.07727],[1.08191,6.04651],[1.06372,6.02649],[1.02893,5.97949],[0.99512,5.92432],[0.9903,5.90527],[0.99371,5.89349],[0.99353,5.87793],[0.98712,5.8537],[0.98151,5.84149],[0.97089,5.82648],[0.9491,5.80328],[0.9361,5.79248],[0.92548,5.78729],[0.90411,5.78271],[0.82751,5.77472],[0.81653,5.76971],[0.78772,5.77087],[0.76868,5.7691],[0.73572,5.77289],[0.71411,5.76929],[0.71552,5.77191],[0.71112,5.77332],[0.7063,5.77051],[0.69287,5.76947],[0.69348,5.76648],[0.67969,5.77173],[0.67468,5.76868],[0.66132,5.7691],[0.6059,5.77631],[0.4585,5.78967],[0.3783,5.78693],[0.32111,5.7821],[0.28131,5.77411],[0.25208,5.76593],[0.23688,5.7547],[0.21869,5.74652],[0.18549,5.74353],[0.18231,5.7403],[0.1405,5.72333],[0.12592,5.7077],[0.10431,5.70129],[0.06787,5.69489],[0.06128,5.68573],[0.0459,5.67548],[0.04327,5.66333],[0.03192,5.65588],[0.0271,5.64587],[0.01727,5.64227],[0.00531,5.62549],[-0.02551,5.61407],[-0.0589,5.60687],[-0.0639,5.59888],[-0.07172,5.59253],[-0.0816,5.58691],[-0.09338,5.5849],[-0.10718,5.57269],[-0.18231,5.54688],[-0.19702,5.54492],[-0.20563,5.54028],[-0.20892,5.53351],[-0.21228,5.53247],[-0.34448,5.50208],[-0.367,5.49371],[-0.37158,5.48889],[-0.40588,5.46973],[-0.40973,5.46191],[-0.41998,5.45288],[-0.46149,5.43268],[-0.46667,5.42609],[-0.4635,5.41827],[-0.46558,5.4129],[-0.48059,5.4021],[-0.48932,5.3855],[-0.49811,5.37872],[-0.52173,5.37128],[-0.55432,5.36548],[-0.62323,5.33148],[-0.66888,5.32092],[-0.72339,5.30029],[-0.73041,5.29492],[-0.72803,5.2851],[-0.73389,5.28009],[-0.74622,5.27533],[-0.75488,5.26569],[-0.7561,5.25873],[-0.76038,5.25391],[-0.77753,5.24652],[-0.78082,5.23969],[-0.78943,5.23248],[-0.79071,5.22772],[-0.80353,5.22089],[-0.80713,5.21631],[-0.82172,5.21228],[-0.85303,5.20868],[-1.0144,5.2019],[-1.0835,5.19611],[-1.09161,5.1933],[-1.11823,5.1745],[-1.1488,5.1637],[-1.16608,5.14551],[-1.1944,5.13751],[-1.19983,5.13428],[-1.19861,5.1275],[-1.20471,5.12048],[-1.2121,5.11969],[-1.24011,5.10291],[-1.26379,5.09888],[-1.31641,5.09772],[-1.34558,5.08972],[-1.3501,5.0813],[-1.39423,5.0705],[-1.4231,5.06732],[-1.43799,5.06293],[-1.44482,5.05829],[-1.47351,5.05548],[-1.50482,5.04327],[-1.52612,5.0415],[-1.56268,5.03412],[-1.59167,5.03192],[-1.60992,5.02753],[-1.62061,5.02148],[-1.62561,5.01569],[-1.63348,4.99872],[-1.63171,4.99188],[-1.63519,4.98132],[-1.6413,4.97772],[-1.64398,4.97211],[-1.68561,4.9635],[-1.69879,4.95752],[-1.70459,4.95313],[-1.7041,4.9469],[-1.7074,4.94531],[-1.70721,4.93372],[-1.73468,4.92352],[-1.74121,4.91687],[-1.7431,4.90552],[-1.74768,4.89752],[-1.74341,4.88892],[-1.73309,4.8877],[-1.73541,4.88153],[-1.7915,4.87231],[-1.80823,4.87329],[-1.81342,4.8703],[-1.81409,4.86731],[-1.83191,4.86011],[-1.83911,4.84888],[-1.8681,4.84448],[-1.88202,4.83691],[-1.8902,4.82812],[-1.91278,4.8255],[-1.9176,4.81409],[-1.93671,4.8067],[-1.94141,4.7951],[-1.94879,4.79187],[-1.94708,4.78912],[-1.97229,4.7691],[-1.97333,4.76129],[-1.98071,4.7569],[-1.99628,4.75952],[-2.02771,4.75708],[-2.04449,4.75311],[-2.05511,4.74072],[-2.07318,4.74847],[-2.0849,4.74628],[-2.09198,4.74109],[-2.09302,4.74811],[-2.11121,4.75592],[-2.11041,4.76251],[-2.11298,4.76428],[-2.1051,4.7757],[-2.10968,4.78168],[-2.1228,4.78967],[-2.1358,4.79089],[-2.14801,4.79712],[-2.1684,4.79669],[-2.1712,4.80432],[-2.16962,4.80713],[-2.18048,4.81689],[-2.20349,4.82208],[-2.2041,4.83173],[-2.21088,4.83868],[-2.2475,4.85529],[-2.2464,4.8587],[-2.2431,4.85931],[-2.2428,4.86292],[-2.24768,4.88031],[-2.25763,4.88831],[-2.26941,4.89227],[-2.26788,4.89569],[-2.26941,4.89948],[-2.32782,4.92328],[-2.38562,4.9433],[-2.51221,4.97089],[-2.55371,4.9823],[-2.55988,4.98712],[-2.56421,4.97589],[-2.63501,4.9823],[-2.6712,4.99933],[-2.73822,5.0083],[-2.77148,5.0191],[-2.96503,5.05872],[-3.05969,5.08173],[-3.10858,5.09027],[-3.10858,5.1153],[-3.10028,5.11249],[-3.09332,5.11493],[-3.0896,5.11292],[-3.07642,5.11292],[-3.07178,5.11371],[-3.07123,5.11987],[-3.06281,5.12189],[-3.0506,5.1167],[-3.04889,5.11987],[-3.04199,5.1167],[-3.021,5.1189],[-3.01178,5.11292],[-3.00342,5.11169],[-2.97852,5.08868],[-2.95001,5.08472],[-2.94098,5.09412],[-2.93152,5.09589],[-2.93378,5.10712],[-2.9411,5.11212],[-2.94031,5.12433],[-2.93628,5.12531],[-2.93359,5.12231],[-2.92651,5.12109],[-2.89801,5.12292],[-2.89221,5.12012],[-2.8905,5.12653],[-2.88593,5.12469],[-2.87903,5.12769],[-2.86133,5.12152],[-2.85303,5.11169],[-2.8465,5.10809],[-2.84241,5.10773],[-2.8385,5.11047],[-2.84021,5.11371],[-2.83423,5.12073],[-2.83038,5.12109],[-2.82751,5.12012],[-2.81799,5.10669],[-2.81512,5.10687],[-2.81622,5.11151],[-2.81329,5.11328],[-2.81219,5.1073],[-2.80939,5.10632],[-2.8064,5.1109],[-2.79773,5.10748],[-2.79022,5.10828],[-2.78589,5.11713],[-2.78461,5.11432],[-2.78686,5.11143],[-2.78369,5.1095],[-2.77283,5.11151],[-2.76581,5.1087],[-2.7652,5.10492],[-2.7583,5.10071],[-2.75372,5.1153],[-2.74609,5.11627],[-2.74261,5.11389],[-2.73907,5.1167],[-2.73907,5.12592],[-2.7323,5.12988],[-2.73291,5.1333],[-2.72919,5.13391],[-2.72559,5.14069],[-2.73138,5.15131],[-2.73358,5.14911],[-2.73792,5.15033],[-2.74152,5.15668],[-2.73859,5.15973],[-2.74463,5.16772],[-2.74139,5.1759],[-2.74951,5.19531],[-2.74811,5.20227],[-2.7569,5.20111],[-2.76349,5.21393],[-2.76398,5.21729],[-2.75732,5.21887],[-2.76001,5.22913],[-2.75958,5.23187],[-2.75629,5.23151],[-2.76532,5.23792],[-2.76111,5.2453],[-2.758,5.24213],[-2.75482,5.24231],[-2.75458,5.2533],[-2.75818,5.25592],[-2.76251,5.25549],[-2.76489,5.25873],[-2.771,5.25812],[-2.7757,5.26392],[-2.77869,5.26392],[-2.77338,5.26788],[-2.77551,5.27411],[-2.78021,5.27631],[-2.78479,5.2851],[-2.78351,5.29309],[-2.77222,5.29309],[-2.76941,5.29572],[-2.7666,5.30548],[-2.76611,5.31653],[-2.77191,5.32831],[-2.77643,5.33087],[-2.77588,5.33411],[-2.77081,5.33612],[-2.77643,5.3465],[-2.76862,5.35608],[-2.76471,5.35608],[-2.75702,5.34552],[-2.75372,5.34448],[-2.73798,5.34668],[-2.729,5.34131],[-2.71991,5.3465],[-2.72418,5.35748],[-2.72418,5.38788],[-2.7478,5.43793],[-2.76831,5.5545],[-2.76221,5.59387],[-2.76312,5.6001],[-2.77209,5.60431],[-2.77539,5.6037],[-2.77832,5.60669],[-2.77582,5.61432],[-2.78442,5.61493],[-2.78461,5.61908],[-2.78741,5.62048],[-2.7865,5.62347],[-2.79309,5.62689],[-2.79321,5.62372],[-2.80212,5.62073],[-2.80402,5.61749],[-2.81311,5.62811],[-2.82208,5.62671],[-2.83643,5.63953],[-2.84668,5.64429],[-2.84991,5.64832],[-2.85541,5.64893],[-2.8587,5.65631],[-2.87848,5.63953],[-2.883,5.63953],[-2.88391,5.63611],[-2.8999,5.62927],[-2.92072,5.62811],[-2.92438,5.62128],[-2.93451,5.61987],[-2.94751,5.63672],[-2.95959,5.63672],[-2.96667,5.64069],[-2.961,5.66968],[-2.95331,5.67389],[-2.9527,5.71613],[-3.02612,5.70972],[-3.02051,5.85712],[-3.07397,5.98529],[-3.10229,6.15192],[-3.15479,6.25232],[-3.17401,6.25348],[-3.17078,6.29468],[-3.1745,6.30933],[-3.18091,6.31592],[-3.18579,6.32611],[-3.18652,6.34271],[-3.19348,6.36047],[-3.23651,6.5387],[-3.23401,6.5965],[-3.25488,6.61011],[-3.25549,6.61572],[-3.26208,6.61768],[-3.25708,6.63373],[-3.25671,6.64288],[-3.24561,6.66211],[-3.24231,6.66608],[-3.23541,6.6687],[-3.23621,6.67651],[-3.23181,6.68048],[-3.2287,6.69208],[-3.2309,6.6955],[-3.2301,6.7027],[-3.22168,6.70728],[-3.20898,6.73169],[-3.21698,6.7475],[-3.21252,6.75531],[-3.21552,6.76007],[-3.2265,6.76788],[-3.23132,6.77667],[-3.2312,6.82129],[-3.22711,6.82428],[-3.14349,6.95673],[-3.14209,6.9635],[-3.11658,7.00592],[-3.10901,7.01331],[-3.08289,7.0545],[-3.07489,7.06293],[-3.0321,7.07172],[-3.0238,7.14148],[-2.98273,7.1947],[-2.95331,7.23932],[-2.95972,7.25092],[-2.97821,7.27209],[-2.9693,7.33447],[-2.94843,7.43011],[-2.94733,7.45648],[-2.93469,7.48651],[-2.92352,7.6087],[-2.88861,7.68372],[-2.86932,7.7323],[-2.85059,7.7619],[-2.84851,7.78027],[-2.82611,7.80573],[-2.82898,7.82129],[-2.82581,7.82391],[-2.83173,7.84692],[-2.8252,7.86829],[-2.82172,7.8949],[-2.82208,7.91248],[-2.8103,7.93848],[-2.80859,7.9657],[-2.79279,7.98352],[-2.7713,7.99731],[-2.75159,8.00189],[-2.71271,8.01727],[-2.69562,8.02972],[-2.66199,8.04211],[-2.65271,8.0423],[-2.63239,8.05432],[-2.63593,8.06732],[-2.63019,8.11292],[-2.625,8.12512],[-2.61499,8.13751],[-2.6087,8.15051],[-2.60321,8.15289],[-2.5946,8.15253],[-2.57672,8.14532],[-2.56421,8.1485],[-2.55933,8.14532],[-2.55408,8.14648],[-2.5448,8.17572],[-2.51788,8.19092],[-2.50891,8.19348],[-2.49481,8.20532],[-2.50439,8.33411],[-2.51642,8.38312],[-2.51752,8.40167],[-2.53302,8.4809],[-2.54901,8.5423],[-2.58722,8.77869],[-2.59052,8.78632],[-2.59589,8.78833],[-2.61731,8.78729],[-2.62848,8.79572],[-2.62231,8.80652],[-2.59851,8.8219],[-2.59631,8.82892],[-2.6004,8.8429],[-2.60791,8.84912],[-2.62268,8.87708],[-2.61609,8.91089],[-2.6178,8.92047],[-2.62701,8.92969],[-2.64258,8.93469],[-2.65021,8.94269],[-2.65771,8.98328],[-2.65411,9.00751],[-2.66028,9.00812],[-2.66388,9.01593],[-2.67493,9.02008],[-2.69519,9.01849],[-2.69879,9.01593],[-2.7052,9.02069],[-2.72028,9.01349],[-2.71918,9.01788],[-2.71381,9.02271],[-2.716,9.02509],[-2.73029,9.0271],[-2.76111,9.02612],[-2.77191,9.0329],[-2.7738,9.04431],[-2.7818,9.05469],[-2.7829,9.05969],[-2.78009,9.06732],[-2.76831,9.08032],[-2.7655,9.09027],[-2.76959,9.11469],[-2.76831,9.11829],[-2.77509,9.13892],[-2.77393,9.1427],[-2.76392,9.15088],[-2.75128,9.1543],[-2.74951,9.15668],[-2.74268,9.15631],[-2.73602,9.16071],[-2.72321,9.1853],[-2.72168,9.19287],[-2.72388,9.1991],[-2.72052,9.19672],[-2.7135,9.20911],[-2.69788,9.21808],[-2.69208,9.22632],[-2.66193,9.24011],[-2.65662,9.25568],[-2.67401,9.2771],[-2.68591,9.28729],[-2.69421,9.28473],[-2.70471,9.28711],[-2.71521,9.29633],[-2.71771,9.30151],[-2.72119,9.31567],[-2.71991,9.33368],[-2.71118,9.33893],[-2.70319,9.34009],[-2.69373,9.35211],[-2.68158,9.3609],[-2.67389,9.3833],[-2.67761,9.40851],[-2.6886,9.4325],[-2.69,9.45313],[-2.68451,9.47388],[-2.68451,9.4873],[-2.69641,9.5069],[-2.70801,9.51569],[-2.71301,9.52307],[-2.7301,9.52948],[-2.74689,9.54651],[-2.75641,9.55151],[-2.76923,9.57092],[-2.77148,9.59967],[-2.76398,9.60791],[-2.76111,9.61853],[-2.74719,9.63348],[-2.74249,9.64191],[-2.74658,9.6427],[-2.75421,9.65308],[-2.75861,9.68048],[-2.78101,9.68811],[-2.78632,9.69391],[-2.78711,9.69928],[-2.78351,9.72571],[-2.79059,9.74249],[-2.7901,9.74689],[-2.77942,9.75592],[-2.75873,9.80011],[-2.75189,9.8067],[-2.73328,9.81488],[-2.72821,9.82208],[-2.72693,9.82831],[-2.72949,9.83673],[-2.74652,9.8537],[-2.76251,9.88568],[-2.763,9.91711],[-2.75232,9.94128],[-2.74481,9.94891],[-2.74329,9.95947],[-2.75,9.98151],[-2.7616,9.99152],[-2.77582,10.01233],[-2.77753,10.02112],[-2.78223,10.02832],[-2.7829,10.04547],[-2.79071,10.07068],[-2.78851,10.09509],[-2.79211,10.10632],[-2.79388,10.12469],[-2.78778,10.13928],[-2.79089,10.16248],[-2.79498,10.17389],[-2.79309,10.1767],[-2.79779,10.19049],[-2.79633,10.19647],[-2.78802,10.20648],[-2.77258,10.2157],[-2.76068,10.22693],[-2.75702,10.23529],[-2.75659,10.24933],[-2.7616,10.26251],[-2.76709,10.26672],[-2.79828,10.2771],[-2.83319,10.29633],[-2.84222,10.30548],[-2.8501,10.31989],[-2.849,10.32849],[-2.84271,10.34253],[-2.84131,10.36713],[-2.83002,10.38971],[-2.81818,10.39789],[-2.79889,10.3985],[-2.78241,10.40729],[-2.7757,10.41351],[-2.77338,10.42291],[-2.77539,10.42529],[-2.79211,10.42688],[-2.83301,10.43707],[-2.85382,10.44812],[-2.85303,10.4519],[-2.8559,10.45172],[-2.86572,10.45911],[-2.87079,10.47131],[-2.875,10.49188],[-2.87988,10.50049],[-2.88818,10.50568],[-2.8985,10.52191],[-2.90039,10.52972],[-2.89801,10.54053],[-2.90161,10.5509],[-2.9118,10.56567],[-2.9256,10.59747],[-2.93182,10.60229],[-2.94098,10.61713],[-2.94019,10.63733],[-2.92999,10.65308],[-2.91559,10.66388],[-2.90558,10.68628],[-2.9104,10.69952],[-2.93939,10.70911],[-2.93701,10.72333],[-2.9184,10.73669],[-2.89783,10.76172],[-2.89392,10.76312],[-2.89429,10.77191],[-2.89111,10.78229],[-2.88049,10.80627],[-2.87872,10.8327],[-2.86371,10.85748],[-2.86621,10.8783],[-2.86359,10.88751],[-2.85999,10.89032],[-2.83868,10.89252],[-2.81781,10.92273],[-2.8183,10.93951],[-2.82251,10.94733],[-2.83771,10.96051],[-2.84058,10.96851],[-2.83398,11.00409],[-2.76788,11.00427],[-2.76758,11.01251],[-2.755,11.01929],[-2.62671,11.01929],[-2.58289,11.02173],[-2.55542,11.01813],[-2.49768,11.01831],[-2.45221,11.02332],[-2.37762,11.00891],[-2.36023,11.00812],[-2.30011,11.01111],[-2.2724,11.01691],[-2.22021,11.02069],[-2.11841,11.01428],[-2.05798,11.01752],[-2.00629,11.00409],[-1.74341,11.00812],[-1.74451,11.03809],[-1.54578,11.04028],[-1.54413,11.01031],[-1.42853,11.01251],[-1.42279,11.01672],[-1.42279,11.02032],[-1.3963,10.99091],[-1.37781,10.98651],[-1.27698,10.99109],[-1.11462,10.9859],[-1.11481,11.00391],[-1.00031,11.00787],[-1.00012,10.99792],[-0.97693,10.99847],[-0.95209,11.0025],[-0.9165,11.00232],[-0.91663,10.98029],[-0.88928,10.98071],[-0.88812,10.97089],[-0.89062,10.96411],[-0.88641,10.96411],[-0.87073,10.96667],[-0.86261,10.98492],[-0.85358,10.99847],[-0.82831,10.99908],[-0.82721,11.00653],[-0.8111,11.0061],[-0.80762,11.00452],[-0.80621,10.99872],[-0.8009,10.99792],[-0.68909,10.99847],[-0.68469,10.9975],[-0.68628,10.9895],[-0.68512,10.98529],[-0.68158,10.98352],[-0.67761,10.98291],[-0.67212,10.98969],[-0.65369,10.98712],[-0.65253,10.98248],[-0.65479,10.97772],[-0.65778,10.97491],[-0.6637,10.97449],[-0.6712,10.96191],[-0.67078,10.95868],[-0.66302,10.95648],[-0.65302,10.9635],[-0.6463,10.95673],[-0.64551,10.95367],[-0.64819,10.95068],[-0.63611,10.94232],[-0.62671,10.93951],[-0.61841,10.90991],[-0.5932,10.92468],[-0.59302,10.9317],[-0.58661,10.94373],[-0.58533,10.96173],[-0.5813,10.96411],[-0.57941,10.97168],[-0.56812,10.99091],[-0.56451,10.99268],[-0.55872,10.98969],[-0.55408,10.99048],[-0.55139,10.9873],[-0.55121,10.97968],[-0.54431,10.9765],[-0.54321,10.98492],[-0.53021,10.99951],[-0.52631,10.99872],[-0.52289,10.99249],[-0.5127,10.9903],[-0.50153,11.00293],[-0.50208,11.01611],[-0.49463,11.02032],[-0.48108,11.02271],[-0.47919,11.03088],[-0.47479,11.03528],[-0.46033,11.0285],[-0.43829,11.03027],[-0.43408,11.0379],[-0.43842,11.04413],[-0.43628,11.05267],[-0.43982,11.06512],[-0.43402,11.07727],[-0.4306,11.0957],[-0.43158,11.10211],[-0.42682,11.11432],[-0.42322,11.11407],[-0.40253,11.12628],[-0.38489,11.12653],[-0.37341,11.12292],[-0.37561,11.10773],[-0.37158,11.09949],[-0.37183,11.09009],[-0.36639,11.08148],[-0.36041,11.07751],[-0.3598,11.07013],[-0.35571,11.0719],[-0.35321,11.08429],[-0.34631,11.08447],[-0.3396,11.08832],[-0.33551,11.10052],[-0.33679,11.10632],[-0.33392,11.10828],[-0.32141,11.11493],[-0.27368,11.12347],[-0.27039,11.12891],[-0.27289,11.13867],[-0.28381,11.14252],[-0.28931,11.14911],[-0.28461,11.15411],[-0.28369,11.16669],[-0.27917,11.17273],[-0.27631,11.17468],[-0.22589,11.16333]]]}}]}